STARLINK-2462
1 28121C 21027AF  21325.15247988  .00001063  00000-0  71206-4 0  3258
2 28121  53.0562   7.5434 0001492  57.3131   8.7944 15.06404760    14
